{
    "links": {
        "self": "http://www.neowsapp.com/rest/v1/neo/3560198?api_key=iIulBulltgU6a56xZRHN4H3l9WmuAYTsLGpBGhQ2"
    },
    "id": "3560198",
    "neo_reference_id": "3560198",
    "name": "(2011 FR17)",
    "designation": "2011 FR17",
    "nasa_jpl_url": "http://ssd.jpl.nasa.gov/sbdb.cgi?sstr=3560198",
    "absolute_magnitude_h": 23.4,
    "estimated_diameter": {
        "kilometers": {
            "estimated_diameter_min": 0.0555334912,
            "estimated_diameter_max": 0.1241766613
        },
        "meters": {
            "estimated_diameter_min": 55.5334911581,
            "estimated_diameter_max": 124.1766612574
        },
        "miles": {
            "estimated_diameter_min": 0.0345069009,
            "estimated_diameter_max": 0.0771597762
        },
        "feet": {
            "estimated_diameter_min": 182.1964991311,
            "estimated_diameter_max": 407.4037573197
        }
    },
    "is_potentially_hazardous_asteroid": false,
    "close_approach_data": [
        {
            "close_approach_date": "2011-04-11",
            "close_approach_date_full": "2011-Apr-11 18:15",
            "epoch_date_close_approach": 1302545700000,
            "relative_velocity": {
                "kilometers_per_second": "3.1457479731",
                "kilometers_per_hour": "11324.6927033075",
                "miles_per_hour": "7036.723641119"
            },
            "miss_distance": {
                "astronomical": "0.2109764642",
                "lunar": "82.0698445738",
                "kilometers": "31561629.664451254",
                "miles": "19611487.2767411452"
            },
            "orbiting_body": "Earth"
        }
    ],
    "orbital_data": {
        "orbit_id": "9",
        "orbit_determination_date": "2017-04-06 08:54:00",
        "first_observation_date": "2011-03-27",
        "last_observation_date": "2011-05-22",
        "data_arc_in_days": 56,
        "observations_used": 23,
        "orbit_uncertainty": "5",
        "minimum_orbit_intersection": ".204081",
        "jupiter_tisserand_invariant": "4.151",
        "epoch_osculation": "2459000.5",
        "eccentricity": ".2950768257401941",
        "semi_major_axis": "1.697331493515872",
        "inclination": "6.170499450556155",
        "ascending_node_longitude": "172.4561551667484",
        "orbital_period": "807.6969280911427",
        "perihelion_distance": "1.196488304180345",
        "perihelion_argument": "37.44597183920665",
        "aphelion_distance": "2.198174682851398",
        "perihelion_time": "2458906.654565096197",
        "mean_anomaly": "41.8280117088138",
        "mean_motion": ".4457117360230651",
        "equinox": "J2000",
        "orbit_class": {
            "orbit_class_type": "AMO",
            "orbit_class_description": "Near-Earth asteroid orbits similar to that of 1221 Amor",
            "orbit_class_range": "1.017 AU < q (perihelion) < 1.3 AU"
        }
    },
    "is_sentry_object": false
}